[{"OBJECT_NAME":"STARLINK-36810","OBJECT_ID":"2026-035V","EPOCH":"2026-03-02T22:00:01.999584","MEAN_MOTION":16.03464957,"ECCENTRICITY":8.971e-5,"INCLINATION":97.276,"RA_OF_ASC_NODE":353.7299,"ARG_OF_PERICENTER":108.4044,"MEAN_ANOMALY":148.3078,"EPHEMERIS_TYPE":0,"CLASSIFICATION_TYPE":"U","NORAD_CAT_ID":67898,"ELEMENT_SET_NO":999,"REV_AT_EPOCH":266,"BSTAR":-0.0016421543,"MEAN_MOTION_DOT":-0.01013323,"MEAN_MOTION_DDOT":0.00034958536},{"OBJECT_NAME":"STARLINK-36878","OBJECT_ID":"2026-035W","EPOCH":"2026-03-02T22:00:01.999584","MEAN_MOTION":16.03698145,"ECCENTRICITY":0.0001038,"INCLINATION":97.2758,"RA_OF_ASC_NODE":353.7326,"ARG_OF_PERICENTER":114.3459,"MEAN_ANOMALY":148.4875,"EPHEMERIS_TYPE":0,"CLASSIFICATION_TYPE":"U","NORAD_CAT_ID":67899,"ELEMENT_SET_NO":999,"REV_AT_EPOCH":266,"BSTAR":-0.0017469749,"MEAN_MOTION_DOT":-0.01092267,"MEAN_MOTION_DDOT":0.00040273813},{"OBJECT_NAME":"STARLINK-36361","OBJECT_ID":"2026-035X","EPOCH":"2026-03-02T22:00:01.999584","MEAN_MOTION":16.03837944,"ECCENTRICITY":0.0001014,"INCLINATION":97.2757,"RA_OF_ASC_NODE":353.7338,"ARG_OF_PERICENTER":123.1436,"MEAN_ANOMALY":143.046,"EPHEMERIS_TYPE":0,"CLASSIFICATION_TYPE":"U","NORAD_CAT_ID":67900,"ELEMENT_SET_NO":999,"REV_AT_EPOCH":266,"BSTAR":-0.0017524643,"MEAN_MOTION_DOT":-0.01104704,"MEAN_MOTION_DDOT":0.00041193906},{"OBJECT_NAME":"STARLINK-36336","OBJECT_ID":"2026-035Y","EPOCH":"2026-03-02T22:00:01.999584","MEAN_MOTION":16.04166794,"ECCENTRICITY":9.065e-5,"INCLINATION":97.2759,"RA_OF_ASC_NODE":353.7386,"ARG_OF_PERICENTER":114.5406,"MEAN_ANOMALY":161.8289,"EPHEMERIS_TYPE":0,"CLASSIFICATION_TYPE":"U","NORAD_CAT_ID":67901,"ELEMENT_SET_NO":999,"REV_AT_EPOCH":271,"BSTAR":-0.0017353366,"MEAN_MOTION_DOT":-0.01115417,"MEAN_MOTION_DDOT":0.00042099767},{"OBJECT_NAME":"STARLINK-36876","OBJECT_ID":"2026-035Z","EPOCH":"2026-03-02T22:00:01.999584","MEAN_MOTION":16.03920972,"ECCENTRICITY":9.689e-5,"INCLINATION":97.2761,"RA_OF_ASC_NODE":353.7359,"ARG_OF_PERICENTER":100.6881,"MEAN_ANOMALY":168.4291,"EPHEMERIS_TYPE":0,"CLASSIFICATION_TYPE":"U","NORAD_CAT_ID":67902,"ELEMENT_SET_NO":999,"REV_AT_EPOCH":266,"BSTAR":-0.001764723,"MEAN_MOTION_DOT":-0.01117803,"MEAN_MOTION_DDOT":0.0004214357},{"OBJECT_NAME":"STARLINK-36257","OBJECT_ID":"2026-035AA","EPOCH":"2026-03-02T22:00:01.999584","MEAN_MOTION":16.04023963,"ECCENTRICITY":9.055e-5,"INCLINATION":97.2758,"RA_OF_ASC_NODE":353.7365,"ARG_OF_PERICENTER":96.5414,"MEAN_ANOMALY":175.652,"EPHEMERIS_TYPE":0,"CLASSIFICATION_TYPE":"U","NORAD_CAT_ID":67903,"ELEMENT_SET_NO":999,"REV_AT_EPOCH":271,"BSTAR":-0.0017546464,"MEAN_MOTION_DOT":-0.01118241,"MEAN_MOTION_DDOT":0.0004222567},{"OBJECT_NAME":"STARLINK-36814","OBJECT_ID":"2026-036A","EPOCH":"2026-03-02T22:00:01.999584","MEAN_MOTION":15.84544235,"ECCENTRICITY":0.00016556,"INCLINATION":42.995,"RA_OF_ASC_NODE":291.3304,"ARG_OF_PERICENTER":279.4635,"MEAN_ANOMALY":209.7378,"EPHEMERIS_TYPE":0,"CLASSIFICATION_TYPE":"U","NORAD_CAT_ID":67904,"ELEMENT_SET_NO":999,"REV_AT_EPOCH":255,"BSTAR":-0.0076888762,"MEAN_MOTION_DOT":-0.01598795,"MEAN_MOTION_DDOT":0},{"OBJECT_NAME":"STARLINK-36729","OBJECT_ID":"2026-036B","EPOCH":"2026-03-02T22:00:01.999584","MEAN_MOTION":15.8476254,"ECCENTRICITY":0.00016581,"INCLINATION":42.9946,"RA_OF_ASC_NODE":291.3206,"ARG_OF_PERICENTER":279.9395,"MEAN_ANOMALY":212.9008,"EPHEMERIS_TYPE":0,"CLASSIFICATION_TYPE":"U","NORAD_CAT_ID":67905,"ELEMENT_SET_NO":999,"REV_AT_EPOCH":255,"BSTAR":-0.0074870358,"MEAN_MOTION_DOT":-0.01576628,"MEAN_MOTION_DDOT":0},{"OBJECT_NAME":"STARLINK-36763","OBJECT_ID":"2026-036C","EPOCH":"2026-03-02T22:00:01.999584","MEAN_MOTION":15.84958132,"ECCENTRICITY":0.00015836,"INCLINATION":42.9944,"RA_OF_ASC_NODE":291.3114,"ARG_OF_PERICENTER":281.6063,"MEAN_ANOMALY":214.9183,"EPHEMERIS_TYPE":0,"CLASSIFICATION_TYPE":"U","NORAD_CAT_ID":67906,"ELEMENT_SET_NO":999,"REV_AT_EPOCH":255,"BSTAR":-0.0073766806,"MEAN_MOTION_DOT":-0.01569257,"MEAN_MOTION_DDOT":0},{"OBJECT_NAME":"STARLINK-36742","OBJECT_ID":"2026-036D","EPOCH":"2026-03-02T22:00:01.999584","MEAN_MOTION":15.85165742,"ECCENTRICITY":0.00017097,"INCLINATION":42.9946,"RA_OF_ASC_NODE":291.3024,"ARG_OF_PERICENTER":275.6185,"MEAN_ANOMALY":224.4736,"EPHEMERIS_TYPE":0,"CLASSIFICATION_TYPE":"U","NORAD_CAT_ID":67907,"ELEMENT_SET_NO":999,"REV_AT_EPOCH":255,"BSTAR":-0.0072133998,"MEAN_MOTION_DOT":-0.01552613,"MEAN_MOTION_DDOT":0},{"OBJECT_NAME":"STARLINK-36827","OBJECT_ID":"2026-036E","EPOCH":"2026-03-02T22:00:01.999584","MEAN_MOTION":15.85332827,"ECCENTRICITY":0.00014105,"INCLINATION":42.9947,"RA_OF_ASC_NODE":291.2932,"ARG_OF_PERICENTER":277.1895,"MEAN_ANOMALY":226.6232,"EPHEMERIS_TYPE":0,"CLASSIFICATION_TYPE":"U","NORAD_CAT_ID":67908,"ELEMENT_SET_NO":999,"REV_AT_EPOCH":255,"BSTAR":-0.0071448002,"MEAN_MOTION_DOT":-0.01550501,"MEAN_MOTION_DDOT":0},{"OBJECT_NAME":"STARLINK-36822","OBJECT_ID":"2026-036F","EPOCH":"2026-03-02T22:00:01.999584","MEAN_MOTION":15.85517855,"ECCENTRICITY":0.00015076,"INCLINATION":42.9948,"RA_OF_ASC_NODE":291.2843,"ARG_OF_PERICENTER":276.3603,"MEAN_ANOMALY":231.0632,"EPHEMERIS_TYPE":0,"CLASSIFICATION_TYPE":"U","NORAD_CAT_ID":67909,"ELEMENT_SET_NO":999,"REV_AT_EPOCH":255,"BSTAR":-0.0070732305,"MEAN_MOTION_DOT":-0.01549236,"MEAN_MOTION_DDOT":0},{"OBJECT_NAME":"STARLINK-36847","OBJECT_ID":"2026-036G","EPOCH":"2026-03-02T22:00:01.999584","MEAN_MOTION":15.8569071,"ECCENTRICITY":0.00016002,"INCLINATION":42.9948,"RA_OF_ASC_NODE":291.275,"ARG_OF_PERICENTER":272.3014,"MEAN_ANOMALY":238.7316,"EPHEMERIS_TYPE":0,"CLASSIFICATION_TYPE":"U","NORAD_CAT_ID":67910,"ELEMENT_SET_NO":999,"REV_AT_EPOCH":255,"BSTAR":-0.0069688677,"MEAN_MOTION_DOT":-0.01540667,"MEAN_MOTION_DDOT":0},{"OBJECT_NAME":"STARLINK-36736","OBJECT_ID":"2026-036H","EPOCH":"2026-03-02T22:00:01.999584","MEAN_MOTION":15.85866635,"ECCENTRICITY":0.00014863,"INCLINATION":42.9945,"RA_OF_ASC_NODE":291.2657,"ARG_OF_PERICENTER":280.8188,"MEAN_ANOMALY":233.8068,"EPHEMERIS_TYPE":0,"CLASSIFICATION_TYPE":"U","NORAD_CAT_ID":67911,"ELEMENT_SET_NO":999,"REV_AT_EPOCH":255,"BSTAR":-0.0069277343,"MEAN_MOTION_DOT":-0.01544299,"MEAN_MOTION_DDOT":0},{"OBJECT_NAME":"STARLINK-36676","OBJECT_ID":"2026-036J","EPOCH":"2026-03-02T22:00:01.999584","MEAN_MOTION":15.86051243,"ECCENTRICITY":0.00016957,"INCLINATION":42.9947,"RA_OF_ASC_NODE":291.2574,"ARG_OF_PERICENTER":277.3202,"MEAN_ANOMALY":240.7798,"EPHEMERIS_TYPE":0,"CLASSIFICATION_TYPE":"U","NORAD_CAT_ID":67912,"ELEMENT_SET_NO":999,"REV_AT_EPOCH":255,"BSTAR":-0.0068139006,"MEAN_MOTION_DOT":-0.01534371,"MEAN_MOTION_DDOT":0},{"OBJECT_NAME":"STARLINK-36690","OBJECT_ID":"2026-036K","EPOCH":"2026-03-02T22:00:01.999584","MEAN_MOTION":15.86210208,"ECCENTRICITY":0.00015964,"INCLINATION":42.9948,"RA_OF_ASC_NODE":291.2481,"ARG_OF_PERICENTER":274.9738,"MEAN_ANOMALY":246.7566,"EPHEMERIS_TYPE":0,"CLASSIFICATION_TYPE":"U","NORAD_CAT_ID":67913,"ELEMENT_SET_NO":999,"REV_AT_EPOCH":255,"BSTAR":-0.0067941714,"MEAN_MOTION_DOT":-0.01541002,"MEAN_MOTION_DDOT":0}]
